[{"OBJECT_NAME":"STARLINK-34919","OBJECT_ID":"2025-218M","EPOCH":"2026-03-09T13:48:46.262880","MEAN_MOTION":15.05670616,"ECCENTRICITY":0.0001302,"INCLINATION":97.6023,"RA_OF_ASC_NODE":292.8584,"ARG_OF_PERICENTER":75.5084,"MEAN_ANOMALY":284.6287,"EPHEMERIS_TYPE":0,"CLASSIFICATION_TYPE":"U","NORAD_CAT_ID":65802,"ELEMENT_SET_NO":999,"REV_AT_EPOCH":2495,"BSTAR":0.00075128,"MEAN_MOTION_DOT":0.00010802,"MEAN_MOTION_DDOT":0},{"OBJECT_NAME":"PEGASUS DEB","OBJECT_ID":"1994-029AFX","EPOCH":"2026-03-01T06:33:22.731264","MEAN_MOTION":14.85739755,"ECCENTRICITY":0.0106553,"INCLINATION":81.851,"RA_OF_ASC_NODE":257.2393,"ARG_OF_PERICENTER":271.4617,"MEAN_ANOMALY":87.4394,"EPHEMERIS_TYPE":0,"CLASSIFICATION_TYPE":"U","NORAD_CAT_ID":39924,"ELEMENT_SET_NO":999,"REV_AT_EPOCH":63095,"BSTAR":0.00041812,"MEAN_MOTION_DOT":4.045e-5,"MEAN_MOTION_DDOT":0}]
